GSAT-17                 
1 42815U 17040B   26160.14646434 -.00000241  00000+0  00000+0 0  9995
2 42815   0.1055  88.3225 0001577 213.1314 102.3113  1.00271689 32703
INTELSAT 35E (IS-35E)   
1 42818U 17041A   26160.18963291  .00000000  00000+0  00000+0 0  9998
2 42818   0.0200 353.1978 0001624  84.8725 213.2858  1.00269581 32736
COSMOS 2520             
1 42907U 17046A   26159.63781561  .00000153  00000+0  00000+0 0  9997
2 42907   0.0442  86.9350 0001170  55.5058  29.2057  1.00270113 32311
TDRS 13                 
1 42915U 17047A   26160.12575090 -.00000085  00000+0  00000+0 0  9996
2 42915   3.4494   2.5168 0014577 105.3899 183.4326  1.00271945 32267
QZS-3 (MICHIBIKI-3)     
1 42917U 17048A   26160.01050714 -.00000331  00000+0  00000+0 0  9992
2 42917   0.0571 180.6010 0002671 266.7687 300.8273  1.00269294 32171
AMAZONAS 5              
1 42934U 17053A   26160.04458979 -.00000266  00000+0  00000+0 0  9992
2 42934   0.0316 323.8491 0002419  66.0809 182.5597  1.00269803 31964
ASIASAT 9               
1 42942U 17057A   26158.94017586 -.00000344  00000+0  00000+0 0  9993
2 42942   0.0114  80.9491 0002481 346.4825 289.4719  1.00270474 31769
INTELSAT 37E (IS-37E)   
1 42950U 17059A   26160.14003137  .00000000  00000+0  00000+0 0  9994
2 42950   0.0194 353.6646 0002303 107.7787 188.4837  1.00268430 31988
BSAT-4A                 
1 42951U 17059B   26160.00712713 -.00000334  00000+0  00000+0 0  9998
2 42951   0.0365   6.7991 0004164  58.5529 304.4340  1.00272912 31712
QZS-4 (MICHIBIKI-4)     
1 42965U 17062A   26159.36948078 -.00000310  00000+0  00000+0 0  9993
2 42965  40.1136 343.5961 0745005 271.5827 272.2936  1.00253721 31711
SES-11 (ECHOSTAR 105)   
1 42967U 17063A   26160.10723146 -.00000072  00000+0  00000+0 0  9992
2 42967   0.0148 350.5470 0002700  99.0409 101.5512  1.00270863 31643
KOREASAT 5A             
1 42984U 17067A   26160.01433766 -.00000342  00000+0  00000+0 0  9991
2 42984   0.0110 316.6482 0000579 128.0432 291.0274  1.00271308 31441
ALCOMSAT 1              
1 43039U 17078A   26160.14003137 -.00000169  00000+0  00000+0 0  9991
2 43039   0.0353  72.0333 0002351   1.8016 209.3044  1.00272647 31215
SBIRS GEO-3 (USA 282)   
1 43162U 18009A   26160.21127617  .00000144  00000+0  00000+0 0  9993
2 43162   2.1783  11.6945 0002040  62.6870  99.8744  1.00271795 30769
AL YAH 3                
1 43174U 18012A   26160.14003137 -.00000139  00000+0  00000+0 0  9997
2 43174   1.5300  83.2060 0004093 355.1829 209.4508  1.00271279 30761
SES-14                  
1 43175U 18012B   26160.18030708 -.00000262  00000+0  00000+0 0  9993
2 43175   0.0211  29.4568 0001054  51.2493 194.2662  1.00270502  6940
GOES 17                 
1 43226U 18022A   26160.11025043 -.00000166  00000+0  00000+0 0  9993
2 43226   0.9157  85.8611 0000581  12.6123 109.2210  1.00271617 30349
HISPASAT 30W-6          
1 43228U 18023A   26160.14558604 -.00000200  00000+0  00000+0 0  9992
2 43228   0.0466  43.0160 0006070  24.4288 212.4909  1.00270106 30324
SUPERBIRD-B3            
1 43271U 18033A   26160.08879729 -.00000076  00000+0  00000+0 0  9999
2 43271   0.0185 295.4772 0001283 165.2297 350.7373  1.00270837 29989
HYLAS 4                 
1 43272U 18033B   26160.14558604 -.00000217  00000+0  00000+0 0  9990
2 43272   0.0185  56.8858 0000983  30.5870 188.9993  1.00268669 29980
IRNSS-1I                
1 43286U 18035A   26159.97936502  .00000092  00000+0  00000+0 0  9993
2 43286  28.7349  74.3250 0017795 182.7620  47.7314  1.00270374 29993
USA 283                 
1 43339U 18036A   26158.44341078  .00000000  00000+0  00000+0 0  9991
2 43339   0.0123 333.7419 0000458 159.1187  56.7029  1.00268454 25195
COSMOS 2526             
1 43432U 18037A   26160.22463961 -.00000327  00000+0  00000+0 0  9994
2 43432   0.0185   8.4968 0000453 200.3061 257.7494  1.00275064 29881
APSTAR-6C               
1 43450U 18041A   26160.01189383 -.00000301  00000+0  00000+0 0  9991
2 43450   0.0257 330.3359 0001193  24.0459  41.3055  1.00273005 29722
BANGABANDHUSAT-1        
1 43463U 18044A   26160.00894714  .00000000  00000+0  00000+0 0  9993
2 43463   0.0157 332.3899 0001785 109.9362 297.3814  1.00268601 29620
SES-12                  
1 43488U 18049A   26160.14672434 -.00000252  00000+0  00000+0 0  9993
2 43488   0.0270  41.9122 0000856 245.3533 118.0865  1.00269587 29335
FENGYUN 2H              
1 43491U 18050A   26160.07241723 -.00000114  00000+0  00000+0 0  9991
2 43491   3.0094  79.1692 0001581 126.3944 157.4108  1.00271216 29352
BEIDOU-2 IGSO-7         
1 43539U 18057A   26160.00127120  .00000033  00000+0  00000+0 0  9997
2 43539  55.1932 163.1291 0104904 237.9642 327.3297  1.00254101 29047
TELSTAR 19V             
1 43562U 18059A   26160.04519647 -.00000262  00000+0  00000+0 0  9993
2 43562   0.0357 175.1217 0003229 305.1580  90.4046  1.00255741 29064
TELKOM 4 (MERAH PUTIH)  
1 43587U 18064A   26160.00678046  .00000000  00000+0  00000+0 0  9990
2 43587   0.0165 340.2152 0001358 132.9698 254.6460  1.00268316 28793
TELSTAR 18V             
1 43611U 18069A   26160.01267382 -.00000277  00000+0  00000+0 0  9998
2 43611   0.0204 287.1394 0001848 148.1604 324.6774  1.00270856 28554
AZERSPACE 2 (IS-38)     
1 43632U 18074A   26160.06559578  .00000153  00000+0  00000+0 0  9995
2 43632   0.0015 359.7084 0001318  78.7354 247.7297  1.00271306 28366
